      2.10          N: GNSS NAV DATA                        RINEX VERSION / TYPE
fic2rin                                 05/11/2024 00:59:02 PGM / RUN BY / DATE
                                                            END OF HEADER
5  24  5 10  1 59 44.0 -.172143336385D-03 -.136424205266D-11  .000000000000D+00
     .100000000000D+01 -.108531250000D+03  .403838250056D-08  .219870763583D+01
    -.570714473724D-05  .582636264153D-02  .100433826447D-04  .515361769485D+04
     .439184000000D+06  .223517417908D-07 -.288834820396D+01 -.109896063805D-06
     .971482963993D+00  .193000000000D+03  .124328388431D+01 -.758460164339D-08
     .180364655769D-09  .100000000000D+01  .231300000000D+04  .000000000000D+00
     .240000000000D+01  .000000000000D+00 -.107102096081D-07  .100000000000D+01
     .432000000000D+06  .400000000000D+01
12 24  5 10 10  0  0.0 -.504078343511D-03 -.329691829393D-11  .000000000000D+00
     .130000000000D+03  .987187500000D+02  .412660046090D-08  .244712532039D+01
     .495091080666D-05  .883708917536D-02  .105425715446D-04  .515366437531D+04
     .468000000000D+06  .484287738800D-07  .369570835480D+00 -.165775418282D-06
     .963013316387D+00  .170218750000D+03  .144613732341D+01 -.752995651006D-08
    -.478234206089D-09  .100000000000D+01  .231300000000D+04  .000000000000D+00
     .240000000000D+01  .000000000000D+00 -.125728547573D-07  .130000000000D+03
     .460800000000D+06  .400000000000D+01
6  24  5 10 10  0  0.0  .280523207039D-03 -.193267624127D-10  .000000000000D+00
     .159000000000D+03 -.845937500000D+02  .393944980818D-08 -.223465914753D+01
    -.434555113316D-05  .302108016331D-02  .180862843990D-05  .515361470604D+04
     .468000000000D+06 -.130385160446D-07  .240966661101D+01  .204890966415D-07
     .989704819967D+00  .361187500000D+03 -.694673489082D+00 -.804676375144D-08
    -.218937691062D-09  .100000000000D+01  .231300000000D+04  .000000000000D+00
     .240000000000D+01  .000000000000D+00  .372529029846D-08  .159000000000D+03
     .460800000000D+06  .400000000000D+01
8  24  5 10 10  0  0.0  .170337036252D-03  .206910044653D-10  .000000000000D+00
     .108000000000D+03  .122281250000D+03  .471983945740D-08 -.259138947412D+00
     .634416937828D-05  .944637600332D-02  .405870378017D-05  .515362985039D+04
     .468000000000D+06  .100582838058D-06  .131411950562D+01  .875443220139D-07
     .953288874205D+00  .294718750000D+03  .361271206750D+00 -.842499379195D-08
     .378587198248D-10  .100000000000D+01  .231300000000D+04  .000000000000D+00
     .240000000000D+01  .000000000000D+00  .465661287308D-08  .108000000000D+03
     .460800000000D+06  .400000000000D+01
24 24  5 10 10  0  0.0 -.468231737614D-03 -.363797880709D-11  .000000000000D+00
     .770000000000D+02 -.142187500000D+02  .555415992448D-08 -.208274988925D+01
    -.840052962303D-06  .152444184059D-01  .549107789993D-05  .515370528793D+04
     .468000000000D+06  .212341547012D-06 -.842367661983D+00 -.577419996262D-07
     .933752327401D+00  .255031250000D+03  .976148255099D+00 -.814462497061D-08
    -.835749098019D-10  .100000000000D+01  .231300000000D+04  .000000000000D+00
     .240000000000D+01  .000000000000D+00  .232830643654D-08  .770000000000D+02
     .460800000000D+06  .400000000000D+01
32 24  5 10 10  0  0.0 -.618343707174D-03  .227373675443D-12  .000000000000D+00
     .760000000000D+02 -.571875000000D+01  .471162482951D-08  .470920124971D+00
    -.441446900368D-06  .775222666562D-02  .780075788498D-05  .515366463661D+04
     .468000000000D+06 -.558793544769D-07 -.180381130238D+01  .726431608200D-07
     .961440214244D+00  .230906250000D+03 -.213312870197D+01 -.801176229349D-08
     .592524681031D-09  .100000000000D+01  .231300000000D+04  .000000000000D+00
     .240000000000D+01  .000000000000D+00  .931322574615D-09  .760000000000D+02
     .460800000000D+06  .400000000000D+01
29 24  5 10 10  0  0.0 -.598966144025D-03  .136424205266D-11  .000000000000D+00
     .620000000000D+02  .130750000000D+03  .426410618857D-08 -.226489195007D+00
     .663846731186D-05  .289466406684D-02  .300072133541D-05  .515360095024D+04
     .468000000000D+06  .167638063431D-07  .142360048377D+01 -.100582838058D-06
     .971399159268D+00  .328031250000D+03  .252493158981D+01 -.817034032747D-08
     .892894335490D-10  .100000000000D+01  .231300000000D+04  .000000000000D+00
     .240000000000D+01  .000000000000D+00 -.977888703346D-08  .620000000000D+02
     .460800000000D+06  .400000000000D+01
30 24  5 10 10  0  0.0 -.392622314394D-03  .579802872380D-11  .000000000000D+00
     .620000000000D+02 -.184687500000D+02  .551772983560D-08  .302587623582D+01
    -.100210309029D-05  .712305749767D-02  .638701021671D-05  .515363937187D+04
     .468000000000D+06 -.838190317154D-07 -.744743402261D+00 -.117346644402D-06
     .935291838019D+00  .246031250000D+03 -.247217795049D+01 -.823462871962D-08
    -.367158150754D-09  .100000000000D+01  .231300000000D+04  .000000000000D+00
     .240000000000D+01  .000000000000D+00  .419095158577D-08  .620000000000D+02
     .460800000000D+06  .400000000000D+01
26 24  5 10 10  0  0.0  .154979061335D-03 -.545696821064D-11  .000000000000D+00
     .610000000000D+02  .523125000000D+02  .507163982558D-08  .160125157773D+01
     .295042991638D-05  .885552284308D-02  .112112611532D-04  .515363881683D+04
     .468000000000D+06 -.182539224625D-06  .221117661181D+00  .150874257088D-06
     .931718174922D+00  .150062500000D+03  .542490101896D+00 -.814533928608D-08
    -.587881630487D-09  .100000000000D+01  .231300000000D+04  .000000000000D+00
     .240000000000D+01  .000000000000D+00  .651925802231D-08  .610000000000D+02
     .460800000000D+06  .400000000000D+01
20 24  5 10 10  0  0.0  .377111136913D-03 -.136424205266D-11  .000000000000D+00
     .830000000000D+02 -.136281250000D+03  .421981862953D-08 -.179568605202D+01
    -.703707337379D-05  .361437047832D-02  .903569161892D-05  .515379279900D+04
     .468000000000D+06  .111758708954D-07 -.301702340755D+01 -.894069671631D-07
     .953951826254D+00  .200218750000D+03 -.259315297944D+01 -.785854162552D-08
     .116433421348D-09  .100000000000D+01  .231300000000D+04  .000000000000D+00
     .240000000000D+01  .000000000000D+00 -.838190317154D-08  .830000000000D+02
     .460800000000D+06  .400000000000D+01
25 24  5 10 10  0  0.0  .495457090437D-03  .682121026330D-12  .000000000000D+00
     .660000000000D+02  .787812500000D+02  .442482716896D-08  .241427511895D+01
     .380165874958D-05  .117448726669D-01  .109318643808D-04  .515357944489D+04
     .468000000000D+06  .130385160446D-07  .283241453183D+00 -.245869159698D-06
     .950955250692D+00  .158343750000D+03  .109041984377D+01 -.759960226822D-08
    -.501806616545D-09  .100000000000D+01  .231300000000D+04  .000000000000D+00
     .240000000000D+01  .000000000000D+00  .512227416039D-08  .660000000000D+02
     .460800000000D+06  .400000000000D+01
13 24  5 10 10  0  0.0  .649375841022D-03  .295585778076D-11  .000000000000D+00
     .740000000000D+02  .125000000000D+01  .465876548485D-08 -.525832525207D+00
     .210478901863D-06  .800148909912D-02  .700540840626D-05  .515364733505D+04
     .468000000000D+06 -.223517417908D-07 -.165264923243D+01  .134110450745D-06
     .970924745176D+00  .252750000000D+03  .922457531899D+00 -.800104756146D-08
     .556808907612D-09  .100000000000D+01  .231300000000D+04  .000000000000D+00
     .240000000000D+01  .000000000000D+00 -.111758708954D-07  .740000000000D+02
     .460800000000D+06  .400000000000D+01
21 24  5 10 10  0  0.0  .122470781207D-03 -.227373675443D-11  .000000000000D+00
     .157000000000D+03 -.565000000000D+02  .458161941427D-08 -.385262685817D+00
    -.307336449623D-05  .251683901297D-01  .948086380959D-06  .515369242859D+04
     .468000000000D+06  .428408384323D-07  .230463939917D+01 -.540167093277D-06
     .961577971388D+00  .363656250000D+03 -.577366585316D+00 -.864571727168D-08
    -.118576367753D-09  .100000000000D+01  .231300000000D+04  .000000000000D+00
     .240000000000D+01  .000000000000D+00 -.102445483208D-07  .157000000000D+03
     .460800000000D+06  .400000000000D+01
17 24  5 10 10  0  0.0  .707438215613D-03 -.284217094304D-11  .000000000000D+00
     .169000000000D+03  .108781250000D+03  .439839749662D-08 -.239806493772D+00
     .574253499508D-05  .134000957478D-01  .305473804474D-05  .515372504425D+04
     .468000000000D+06 -.227242708206D-06  .140862769863D+01 -.111758708954D-07
     .968990804048D+00  .328562500000D+03 -.132318339348D+01 -.838749222986D-08
     .113933317209D-09  .100000000000D+01  .231300000000D+04  .000000000000D+00
     .240000000000D+01  .000000000000D+00 -.111758708954D-07  .169000000000D+03
     .460800000000D+06  .400000000000D+01
19 24  5 10 10  0  0.0  .480026472360D-03  .534328137292D-11  .000000000000D+00
     .890000000000D+02  .113125000000D+03  .437518224390D-08  .176347917759D+01
     .595487654209D-05  .981337006669D-02  .181235373020D-05  .515370785141D+04
     .468000000000D+06  .124797224998D-06  .145298510982D+01  .135973095894D-06
     .968153808635D+00  .345375000000D+03  .252985956102D+01 -.813105297671D-08
    -.492877673191D-10  .100000000000D+01  .231300000000D+04  .000000000000D+00
     .240000000000D+01  .000000000000D+00 -.153668224812D-07  .890000000000D+02
     .460800000000D+06  .400000000000D+01
14 24  5 10 10  0  0.0  .397183932364D-03  .932232069317D-11  .000000000000D+00
     .138000000000D+03  .762187500000D+02  .458876256895D-08  .244624030176D+01
     .397488474846D-05  .442108535208D-02  .106189399958D-04  .515370763969D+04
     .468000000000D+06 -.949949026108D-07  .325421199625D+00  .279396772385D-07
     .946349169733D+00  .169656250000D+03 -.292267353592D+01 -.785389857497D-08
    -.382515933324D-09  .100000000000D+01  .231300000000D+04  .000000000000D+00
     .240000000000D+01  .000000000000D+00 -.791624188423D-08  .138000000000D+03
     .460800000000D+06  .400000000000D+01
